$$SOE
2460721.500000000, A.D. 2025-Feb-15 00:00:00.0000, 2.962877665534463E+08, -9.307328962270170E+07, 1.474769502486051E+07,
2460728.500000000, A.D. 2025-Feb-22 00:00:00.0000, 2.938315132389688E+08, -8.085418945212421E+07, 8.498418515410669E+06,
2460735.500000000, A.D. 2025-Mar-01 00:00:00.0000, 2.908718056823680E+08, -6.849678078840828E+07, 2.234684806319851E+06,
2460742.500000000, A.D. 2025-Mar-08 00:00:00.0000, 2.873829226602760E+08, -5.601500135263401E+07, -4.033000693984218E+06,
2460749.500000000, A.D. 2025-Mar-15 00:00:00.0000, 2.833383317889710E+08, -4.342516602972147E+07, -1.029276310185753E+07,
2460756.500000000, A.D. 2025-Mar-22 00:00:00.0000, 2.787108459777291E+08, -3.074627037556520E+07, -1.653121391493887E+07,
2460763.500000000, A.D. 2025-Mar-29 00:00:00.0000, 2.734728419110257E+08, -1.800031900062673E+07, -2.273330225253759E+07,
2460770.500000000, A.D. 2025-Apr-05 00:00:00.0000, 2.675965539340946E+08, -5.212670911364074E+06, -2.888216535590446E+07,
2460777.500000000, A.D. 2025-Apr-12 00:00:00.0000, 2.610544557298909E+08, 7.587606245759871E+06, -3.495898411160269E+07,
2460784.500000000, A.D. 2025-Apr-19 00:00:00.0000, 2.538197445803965E+08, 2.036738424133901E+07, -4.094285189399052E+07,
2460791.500000000, A.D. 2025-Apr-26 00:00:00.0000, 2.458669430949826E+08, 3.308914169171566E+07, -4.681066774335866E+07,
2460798.500000000, A.D. 2025-May-03 00:00:00.0000, 2.371726311467666E+08, 4.571067437612817E+07, -5.253706795989267E+07,
2460805.500000000, A.D. 2025-May-10 00:00:00.0000, 2.277163163601770E+08, 5.818487900145513E+07, -5.809441345054963E+07,
2460812.500000000, A.D. 2025-May-17 00:00:00.0000, 2.174814440682297E+08, 7.045964830780149E+07, -6.345285324241422E+07,
2460819.500000000, A.D. 2025-May-24 00:00:00.0000, 2.064565364977702E+08, 8.247792220418236E+07, -6.858048689983824E+07,
2460826.500000000, A.D. 2025-May-31 00:00:00.0000, 1.946364355299424E+08, 9.417794481192723E+07, -7.344364931305940E+07,
2460833.500000000, A.D. 2025-Jun-07 00:00:00.0000, 1.820236026285185E+08, 1.054937791297731E+08, -7.800733931116521E+07,
2460840.500000000, A.D. 2025-Jun-14 00:00:00.0000, 1.686294045038610E+08, 1.163561239919647E+08, -8.223580800155200E+07,
2460847.500000000, A.D. 2025-Jun-21 00:00:00.0000, 1.544752929453582E+08, 1.266934617077179E+08, -8.609331318813924E+07,
2460854.500000000, A.D. 2025-Jun-28 00:00:00.0000, 1.395937686975023E+08, 1.364335460037660E+08, -8.954503083023164E+07,
2460861.500000000, A.D. 2025-Jul-05 00:00:00.0000, 1.240290028851395E+08, 1.455052063706499E+08, -9.255809448251341E+07,
2460868.500000000, A.D. 2025-Jul-12 00:00:00.0000, 1.078369927673162E+08, 1.538404002478905E+08, -9.510271195784847E+07,
2460875.500000000, A.D. 2025-Jul-19 00:00:00.0000, 9.108515238424240E+07, 1.613764006078742E+08, -9.715328761283343E+07,
2460882.500000000, A.D. 2025-Jul-26 00:00:00.0000, 7.385128228908245E+07, 1.680579686346472E+08, -9.868946323468922E+07,
2460889.500000000, A.D. 2025-Aug-02 00:00:00.0000, 5.622192409600925E+07, 1.738393379531801E+08, -9.969698530789350E+07,
2460896.500000000, A.D. 2025-Aug-09 00:00:00.0000, 3.829017665953307E+07, 1.786858365838696E+08, -1.001683147243838E+08,
2460903.500000000, A.D. 2025-Aug-16 00:00:00.0000, 2.015311844426561E+07, 1.825749993782822E+08, -1.001029172735164E+08,
2460910.500000000, A.D. 2025-Aug-23 00:00:00.0000, 1.909031189230919E+06, 1.854970748438240E+08, -9.950720655287004E+07,
2460917.500000000, A.D. 2025-Aug-30 00:00:00.0000, -1.634535785494790E+07, 1.874548977486647E+08, -9.839414925792930E+07,
2460924.500000000, A.D. 2025-Sep-06 00:00:00.0000, -3.451740990430033E+07, 1.884631688687199E+08, -9.678257870655388E+07,
2460931.500000000, A.D. 2025-Sep-13 00:00:00.0000, -5.252071913897210E+07, 1.885472391515490E+08, -9.469628982611552E+07,
2460938.500000000, A.D. 2025-Sep-20 00:00:00.0000, -7.027675548825148E+07, 1.877415357780539E+08, -9.216300335629490E+07,
2460945.500000000, A.D. 2025-Sep-27 00:00:00.0000, -8.771596030376473E+07, 1.860877876196799E+08, -8.921328699457075E+07,
2460952.500000000, A.D. 2025-Oct-04 00:00:00.0000, -1.047783114911019E+08, 1.836331977974934E+08, -8.587951029353930E+07,
2460959.500000000, A.D. 2025-Oct-11 00:00:00.0000, -1.214134180564987E+08, 1.804286858037178E+08, -8.219489234903063E+07,
2460966.500000000, A.D. 2025-Oct-18 00:00:00.0000, -1.375802309581384E+08, 1.765272896714863E+08, -7.819268062090617E+07,
2460973.500000000, A.D. 2025-Oct-25 00:00:00.0000, -1.532464681228212E+08, 1.719827845612318E+08, -7.390547950467597E+07,
2460980.500000000, A.D. 2025-Nov-01 00:00:00.0000, -1.683878490758266E+08, 1.668485432201864E+08, -6.936473099139233E+07,
2460987.500000000, A.D. 2025-Nov-08 00:00:00.0000, -1.829872232841495E+08, 1.611766392366064E+08, -6.460033796808460E+07,
2460994.500000000, A.D. 2025-Nov-15 00:00:00.0000, -1.970336603198377E+08, 1.550171768426378E+08, -5.964041341744152E+07,
2461001.500000000, A.D. 2025-Nov-22 00:00:00.0000, -2.105215526966397E+08, 1.484178210072787E+08, -5.451113528214455E+07,
2461008.500000000, A.D. 2025-Nov-29 00:00:00.0000, -2.234497669533652E+08, 1.414234977634171E+08, -4.923668599397681E+07,
2461015.500000000, A.D. 2025-Dec-06 00:00:00.0000, -2.358208672551522E+08, 1.340762327923611E+08, -4.383925682712901E+07,
2461022.500000000, A.D. 2025-Dec-13 00:00:00.0000, -2.476404224909433E+08, 1.264150950442366E+08, -3.833910006292671E+07,
2461029.500000000, A.D. 2025-Dec-20 00:00:00.0000, -2.589163969633601E+08, 1.184762200016834E+08, -3.275461462934822E+07,
2461036.500000000, A.D. 2025-Dec-27 00:00:00.0000, -2.696586239682133E+08, 1.102928927937255E+08, -2.710245313813354E+07,
2461043.500000000, A.D. 2026-Jan-03 00:00:00.0000, -2.798783585560122E+08, 1.018956722677389E+08, -2.139764107625250E+07,
2461050.500000000, A.D. 2026-Jan-10 00:00:00.0000, -2.895879022633681E+08, 9.331254086950344E+07, -1.565370131098339E+07,
2461057.500000000, A.D. 2026-Jan-17 00:00:00.0000, -2.988002916146746E+08, 8.456906908460538E+07, -9.882778905983005E+06,
2461064.500000000, A.D. 2026-Jan-24 00:00:00.0000, -3.075290422212639E+08, 7.568858610020676E+07, -4.095762734169204E+06,
2461071.500000000, A.D. 2026-Jan-31 00:00:00.0000, -3.157879406940631E+08, 6.669235059395068E+07, 1.697598449086498E+06,
2461078.500000000, A.D. 2026-Feb-07 00:00:00.0000, -3.235908771486507E+08, 5.759971731503928E+07, 7.488586905227192E+06,
2461085.500000000, A.D. 2026-Feb-14 00:00:00.0000, -3.309517116223019E+08, 4.842829656724965E+07, 1.326941453951685E+07,
2461092.500000000, A.D. 2026-Feb-21 00:00:00.0000, -3.378841683607033E+08, 3.919410536126139E+07, 1.903312956894023E+07,
2461099.500000000, A.D. 2026-Feb-28 00:00:00.0000, -3.444017541608090E+08, 2.991171037167244E+07, 2.477353139166392E+07,
2461106.500000000, A.D. 2026-Mar-07 00:00:00.0000, -3.505176986397145E+08, 2.059436030620641E+07, 3.048509342905570E+07,
2461113.500000000, A.D. 2026-Mar-14 00:00:00.0000, -3.562449101061862E+08, 1.125410532302606E+07, 3.616289309340616E+07,
2461120.500000000, A.D. 2026-Mar-21 00:00:00.0000, -3.615959422620041E+08, 1.901906643419331E+06, 4.180254846884116E+07,
2461127.500000000, A.D. 2026-Mar-28 00:00:00.0000, -3.665829712439480E+08, -7.452262185754662E+06, 4.740016144556163E+07,
2461134.500000000, A.D. 2026-Apr-04 00:00:00.0000, -3.712177815465813E+08, -1.679932280888614E+07, 5.295226674560530E+07,
2461141.500000000, A.D. 2026-Apr-11 00:00:00.0000, -3.755117588532769E+08, -2.613100811344808E+07, 5.845578625927299E+07,
2461148.500000000, A.D. 2026-Apr-18 00:00:00.0000, -3.794758882177508E+08, -3.543978619021581E+07, 6.390798817447694E+07,
2461155.500000000, A.D. 2026-Apr-25 00:00:00.0000, -3.831207564025971E+08, -4.471879155317495E+07, 6.930645042369999E+07,
2461162.500000000, A.D. 2026-May-02 00:00:00.0000, -3.864565574060498E+08, -5.396176303213084E+07, 7.464902800495124E+07,
2461169.500000000, A.D. 2026-May-09 00:00:00.0000, -3.894931002884807E+08, -6.316298781663520E+07, 7.993382375695163E+07,
2461176.500000000, A.D. 2026-May-16 00:00:00.0000, -3.922398183011630E+08, -7.231725096120954E+07, 8.515916219776323E+07,
2461183.500000000, A.D. 2026-May-23 00:00:00.0000, -3.947057787651895E+08, -8.141978881724687E+07, 9.032356617269894E+07,
2461190.500000000, A.D. 2026-May-30 00:00:00.0000, -3.968996953774781E+08, -9.046624560076493E+07, 9.542573622818190E+07,
2461197.500000000, A.D. 2026-Jun-06 00:00:00.0000, -3.988299429426148E+08, -9.945263593845753E+07, 1.004645322044912E+08,
2461204.500000000, A.D. 2026-Jun-13 00:00:00.0000, -4.005045706125712E+08, -1.083753127979101E+08, 1.054389564874891E+08,
2461211.500000000, A.D. 2026-Jun-20 00:00:00.0000, -4.019313139329084E+08, -1.172309375149783E+08, 1.103481389885994E+08,
2461218.500000000, A.D. 2026-Jun-27 00:00:00.0000, -4.031176072327904E+08, -1.260164519336335E+08, 1.151913237869460E+08,
2461225.500000000, A.D. 2026-Jul-04 00:00:00.0000, -4.040705962354165E+08, -1.347290531431532E+08, 1.199678571976813E+08,
2461232.500000000, A.D. 2026-Jul-11 00:00:00.0000, -4.047971505427839E+08, -1.433661706844225E+08, 1.246771770799807E+08,
2461239.500000000, A.D. 2026-Jul-18 00:00:00.0000, -4.053038758347148E+08, -1.519254459655244E+08, 1.293188032438837E+08,
2461246.500000000, A.D. 2026-Jul-25 00:00:00.0000, -4.055971257099466E+08, -1.604047136727357E+08, 1.338923288353510E+08,
2461253.500000000, A.D. 2026-Aug-01 00:00:00.0000, -4.056830130883557E+08, -1.688019850341470E+08, 1.383974125860486E+08,
2461260.500000000, A.D. 2026-Aug-08 00:00:00.0000, -4.055674209376686E+08, -1.771154327994320E+08, 1.428337718114800E+08,
2461267.500000000, A.D. 2026-Aug-15 00:00:00.0000, -4.052560118962345E+08, -1.853433773303218E+08, 1.472011760723558E+08,
2461274.500000000, A.D. 2026-Aug-22 00:00:00.0000, -4.047542375461233E+08, -1.934842724415517E+08, 1.514994415937637E+08,
2461281.500000000, A.D. 2026-Aug-29 00:00:00.0000, -4.040673496246391E+08, -2.015366922412854E+08, 1.557284264731260E+08,
2461288.500000000, A.D. 2026-Sep-05 00:00:00.0000, -4.032004110454684E+08, -2.094993217288662E+08, 1.598880261882460E+08,
$$EOE